{"type":"FeatureCollection","metadata":{"generated":1790740749000,"url":"https://earthquake.usgs.gov/earthquakes/feed/v1.0/summary/all_hour.geojson","title":"USGS All Earthquakes, Past Hour","status":200,"api":"2.7.0","count":6},"features":[{"type":"Feature","properties":{"mag":1.32,"place":"18 km SSE of Mammoth Lakes, CA","time":1790739572940,"updated":1790739670290,"tz":null,"url":"https://earthquake.usgs.gov/earthquakes/eventpage/nc75441781","detail":"https://earthquake.usgs.gov/earthquakes/feed/v1.0/detail/nc75441781.geojson","felt":null,"cdi":null,"mmi":null,"alert":null,"status":"automatic","tsunami":0,"sig":27,"net":"nc","code":"75441781","ids":",nc75441781,","sources":",nc,","types":",nearby-cities,origin,phase-data,","nst":13,"dmin":0.09377,"rms":0.03,"gap":124,"magType":"md","type":"earthquake","title":"M 1.3 - 18 km SSE of Mammoth Lakes, CA"},"geometry":{"type":"Point","coordinates":[-118.873497009277,37.5029983520508,2.9300000667572]},"id":"nc75441781"},
{"type":"Feature","properties":{"mag":0.41,"place":"10 km NW of The Geysers, CA","time":1790739316290,"updated":1790739415421,"tz":null,"url":"https://earthquake.usgs.gov/earthquakes/eventpage/nc75441776","detail":"https://earthquake.usgs.gov/earthquakes/feed/v1.0/detail/nc75441776.geojson","felt":null,"cdi":null,"mmi":null,"alert":null,"status":"automatic","tsunami":0,"sig":3,"net":"nc","code":"75441776","ids":",nc75441776,","sources":",nc,","types":",nearby-cities,origin,phase-data,","nst":14,"dmin":0.006014,"rms":0.01,"gap":106,"magType":"md","type":"earthquake","title":"M 0.4 - 10 km NW of The Geysers, CA"},"geometry":{"type":"Point","coordinates":[-122.841835021973,38.8419990539551,1.92999994754791]},"id":"nc75441776"},
{"type":"Feature","properties":{"mag":0.41,"place":"5 km WNW of Cobb, CA","time":1790739302950,"updated":1790739400491,"tz":null,"url":"https://earthquake.usgs.gov/earthquakes/eventpage/nc75441771","detail":"https://earthquake.usgs.gov/earthquakes/feed/v1.0/detail/nc75441771.geojson","felt":null,"cdi":null,"mmi":null,"alert":null,"status":"automatic","tsunami":0,"sig":3,"net":"nc","code":"75441771","ids":",nc75441771,","sources":",nc,","types":",nearby-cities,origin,phase-data,","nst":9,"dmin":0.006137,"rms":0.01,"gap":86,"magType":"md","type":"earthquake","title":"M 0.4 - 5 km WNW of Cobb, CA"},"geometry":{"type":"Point","coordinates":[-122.783668518066,38.8351669311523,2.01999998092651]},"id":"nc75441771"},
{"type":"Feature","properties":{"mag":1.33,"place":"5 km W of Cobb, CA","time":1790738534990,"updated":1790740641662,"tz":null,"url":"https://earthquake.usgs.gov/earthquakes/eventpage/nc75441766","detail":"https://earthquake.usgs.gov/earthquakes/feed/v1.0/detail/nc75441766.geojson","felt":null,"cdi":null,"mmi":null,"alert":null,"status":"automatic","tsunami":0,"sig":27,"net":"nc","code":"75441766","ids":",nc75441766,","sources":",nc,","types":",nearby-cities,origin,phase-data,scitech-link,","nst":26,"dmin":0.01201,"rms":0.02,"gap":45,"magType":"md","type":"earthquake","title":"M 1.3 - 5 km W of Cobb, CA"},"geometry":{"type":"Point","coordinates":[-122.783996582031,38.8250007629395,1.87999999523163]},"id":"nc75441766"},
{"type":"Feature","properties":{"mag":1.92,"place":"6 km WNW of Wauna, Washington","time":1790738218760,"updated":1790740643991,"tz":null,"url":"https://earthquake.usgs.gov/earthquakes/eventpage/uw714112222","detail":"https://earthquake.usgs.gov/earthquakes/feed/v1.0/detail/uw714112222.geojson","felt":3,"cdi":0,"mmi":null,"alert":null,"status":"reviewed","tsunami":0,"sig":57,"net":"uw","code":"714112222","ids":",uw714112222,","sources":",uw,","types":",dyfi,origin,phase-data,","nst":85,"dmin":0.05552,"rms":0.22,"gap":40,"magType":"ml","type":"earthquake","title":"M 1.9 - 6 km WNW of Wauna, Washington"},"geometry":{"type":"Point","coordinates":[-122.7165,47.4073333333333,31.58]},"id":"uw714112222"},
{"type":"Feature","properties":{"mag":3.81008714964485,"place":"4 km SE of Piru, CA","time":1790737227240,"updated":1790740708398,"tz":null,"url":"https://earthquake.usgs.gov/earthquakes/eventpage/ci41340823","detail":"https://earthquake.usgs.gov/earthquakes/feed/v1.0/detail/ci41340823.geojson","felt":166,"cdi":3.2,"mmi":3.268,"alert":null,"status":"reviewed","tsunami":0,"sig":276,"net":"ci","code":"41340823","ids":",ci41340823,us6000tyh1,","sources":",ci,us,","types":",dyfi,focal-mechanism,nearby-cities,origin,phase-data,scitech-link,shakemap,","nst":119,"dmin":0.08779,"rms":0.25999999,"gap":16,"magType":"mw","type":"earthquake","title":"M 3.8 - 4 km SE of Piru, CA"},"geometry":{"type":"Point","coordinates":[-118.762168884277,34.3951683044434,10.6999998092651]},"id":"ci41340823"}],"bbox":[-122.84183502197,34.395168304443,1.8799999952316,-118.76216888428,47.407333333333,31.58]}