{"type":"FeatureCollection","metadata":{"generated":1790742069000,"url":"https://earthquake.usgs.gov/earthquakes/feed/v1.0/summary/all_hour.geojson","title":"USGS All Earthquakes, Past Hour","status":200,"api":"2.7.0","count":7},"features":[{"type":"Feature","properties":{"mag":4.2,"place":"39 km W of Plan de Ayala, Mexico","time":1790741219706,"updated":1790741995040,"tz":null,"url":"https://earthquake.usgs.gov/earthquakes/eventpage/us6000tyhe","detail":"https://earthquake.usgs.gov/earthquakes/feed/v1.0/detail/us6000tyhe.geojson","felt":null,"cdi":null,"mmi":null,"alert":null,"status":"reviewed","tsunami":0,"sig":271,"net":"us","code":"6000tyhe","ids":",us6000tyhe,","sources":",us,","types":",origin,phase-data,","nst":21,"dmin":2.03,"rms":1.44,"gap":140,"magType":"mb","type":"earthquake","title":"M 4.2 - 39 km W of Plan de Ayala, Mexico"},"geometry":{"type":"Point","coordinates":[-93.8603,17.4713,177.736]},"id":"us6000tyhe"},
{"type":"Feature","properties":{"mag":2.07,"place":"26 km WSW of Westley, CA","time":1790741046440,"updated":1790741542771,"tz":null,"url":"https://earthquake.usgs.gov/earthquakes/eventpage/nc75441791","detail":"https://earthquake.usgs.gov/earthquakes/feed/v1.0/detail/nc75441791.geojson","felt":null,"cdi":null,"mmi":null,"alert":null,"status":"automatic","tsunami":0,"sig":66,"net":"nc","code":"75441791","ids":",nc75441791,","sources":",nc,","types":",nearby-cities,origin,phase-data,scitech-link,","nst":15,"dmin":0.0436,"rms":0.07,"gap":80,"magType":"md","type":"earthquake","title":"M 2.1 - 26 km WSW of Westley, CA"},"geometry":{"type":"Point","coordinates":[-121.454666137695,37.4258346557617,3.65000009536743]},"id":"nc75441791"},
{"type":"Feature","properties":{"mag":0.7,"place":"86 km NNW of Karluk, Alaska","time":1790740750350,"updated":1790740789291,"tz":null,"url":"https://earthquake.usgs.gov/earthquakes/eventpage/aka2026tirxyv","detail":"https://earthquake.usgs.gov/earthquakes/feed/v1.0/detail/aka2026tirxyv.geojson","felt":null,"cdi":null,"mmi":null,"alert":null,"status":"automatic","tsunami":0,"sig":8,"net":"ak","code":"a2026tirxyv","ids":",aka2026tirxyv,","sources":",ak,","types":",origin,phase-data,","nst":10,"dmin":0,"rms":0.3,"gap":133,"magType":"ml","type":"earthquake","title":"M 0.7 - 86 km NNW of Karluk, Alaska"},"geometry":{"type":"Point","coordinates":[-154.981,58.291,5]},"id":"aka2026tirxyv"},
{"type":"Feature","properties":{"mag":1.32,"place":"18 km SSE of Mammoth Lakes, CA","time":1790739572940,"updated":1790741243736,"tz":null,"url":"https://earthquake.usgs.gov/earthquakes/eventpage/nc75441781","detail":"https://earthquake.usgs.gov/earthquakes/feed/v1.0/detail/nc75441781.geojson","felt":null,"cdi":null,"mmi":null,"alert":null,"status":"automatic","tsunami":0,"sig":27,"net":"nc","code":"75441781","ids":",nc75441781,","sources":",nc,","types":",nearby-cities,origin,phase-data,scitech-link,","nst":13,"dmin":0.09377,"rms":0.03,"gap":124,"magType":"md","type":"earthquake","title":"M 1.3 - 18 km SSE of Mammoth Lakes, CA"},"geometry":{"type":"Point","coordinates":[-118.873497009277,37.5029983520508,2.9300000667572]},"id":"nc75441781"},
{"type":"Feature","properties":{"mag":0.41,"place":"10 km NW of The Geysers, CA","time":1790739316290,"updated":1790739415421,"tz":null,"url":"https://earthquake.usgs.gov/earthquakes/eventpage/nc75441776","detail":"https://earthquake.usgs.gov/earthquakes/feed/v1.0/detail/nc75441776.geojson","felt":null,"cdi":null,"mmi":null,"alert":null,"status":"automatic","tsunami":0,"sig":3,"net":"nc","code":"75441776","ids":",nc75441776,","sources":",nc,","types":",nearby-cities,origin,phase-data,","nst":14,"dmin":0.006014,"rms":0.01,"gap":106,"magType":"md","type":"earthquake","title":"M 0.4 - 10 km NW of The Geysers, CA"},"geometry":{"type":"Point","coordinates":[-122.841835021973,38.8419990539551,1.92999994754791]},"id":"nc75441776"},
{"type":"Feature","properties":{"mag":0.41,"place":"5 km WNW of Cobb, CA","time":1790739302950,"updated":1790739400491,"tz":null,"url":"https://earthquake.usgs.gov/earthquakes/eventpage/nc75441771","detail":"https://earthquake.usgs.gov/earthquakes/feed/v1.0/detail/nc75441771.geojson","felt":null,"cdi":null,"mmi":null,"alert":null,"status":"automatic","tsunami":0,"sig":3,"net":"nc","code":"75441771","ids":",nc75441771,","sources":",nc,","types":",nearby-cities,origin,phase-data,","nst":9,"dmin":0.006137,"rms":0.01,"gap":86,"magType":"md","type":"earthquake","title":"M 0.4 - 5 km WNW of Cobb, CA"},"geometry":{"type":"Point","coordinates":[-122.783668518066,38.8351669311523,2.01999998092651]},"id":"nc75441771"},
{"type":"Feature","properties":{"mag":1.33,"place":"5 km W of Cobb, CA","time":1790738534990,"updated":1790740641662,"tz":null,"url":"https://earthquake.usgs.gov/earthquakes/eventpage/nc75441766","detail":"https://earthquake.usgs.gov/earthquakes/feed/v1.0/detail/nc75441766.geojson","felt":null,"cdi":null,"mmi":null,"alert":null,"status":"automatic","tsunami":0,"sig":27,"net":"nc","code":"75441766","ids":",nc75441766,","sources":",nc,","types":",nearby-cities,origin,phase-data,scitech-link,","nst":26,"dmin":0.01201,"rms":0.02,"gap":45,"magType":"md","type":"earthquake","title":"M 1.3 - 5 km W of Cobb, CA"},"geometry":{"type":"Point","coordinates":[-122.783996582031,38.8250007629395,1.87999999523163]},"id":"nc75441766"}],"bbox":[-154.981,17.4713,1.8799999952316,-93.8603,58.291,177.736]}