{"type":"FeatureCollection","metadata":{"generated":1790743825000,"url":"https://earthquake.usgs.gov/earthquakes/feed/v1.0/summary/all_hour.geojson","title":"USGS All Earthquakes, Past Hour","status":200,"api":"2.7.0","count":6},"features":[{"type":"Feature","properties":{"mag":1.66,"place":"16 km NNE of Brooktrails, CA","time":1790743497120,"updated":1790743595063,"tz":null,"url":"https://earthquake.usgs.gov/earthquakes/eventpage/nc75441806","detail":"https://earthquake.usgs.gov/earthquakes/feed/v1.0/detail/nc75441806.geojson","felt":null,"cdi":null,"mmi":null,"alert":null,"status":"automatic","tsunami":0,"sig":42,"net":"nc","code":"75441806","ids":",nc75441806,","sources":",nc,","types":",nearby-cities,origin,phase-data,","nst":8,"dmin":0.09154,"rms":0.1,"gap":146,"magType":"md","type":"earthquake","title":"M 1.7 - 16 km NNE of Brooktrails, CA"},"geometry":{"type":"Point","coordinates":[-123.301834106445,39.5691680908203,12.9300003051758]},"id":"nc75441806"},
{"type":"Feature","properties":{"mag":0.73,"place":"5 km SW of Idyllwild, CA","time":1790743250420,"updated":1790743459111,"tz":null,"url":"https://earthquake.usgs.gov/earthquakes/eventpage/ci41340831","detail":"https://earthquake.usgs.gov/earthquakes/feed/v1.0/detail/ci41340831.geojson","felt":null,"cdi":null,"mmi":null,"alert":null,"status":"automatic","tsunami":0,"sig":8,"net":"ci","code":"41340831","ids":",ci41340831,","sources":",ci,","types":",nearby-cities,origin,phase-data,","nst":39,"dmin":0.03821,"rms":0.15,"gap":58,"magType":"ml","type":"earthquake","title":"M 0.7 - 5 km SW of Idyllwild, CA"},"geometry":{"type":"Point","coordinates":[-116.759833333333,33.7145,14.44]},"id":"ci41340831"},
{"type":"Feature","properties":{"mag":1.67,"place":"8 km ESE of Cloverdale, CA","time":1790742957960,"updated":1790743055001,"tz":null,"url":"https://earthquake.usgs.gov/earthquakes/eventpage/nc75441801","detail":"https://earthquake.usgs.gov/earthquakes/feed/v1.0/detail/nc75441801.geojson","felt":null,"cdi":null,"mmi":null,"alert":null,"status":"automatic","tsunami":0,"sig":43,"net":"nc","code":"75441801","ids":",nc75441801,","sources":",nc,","types":",nearby-cities,origin,phase-data,","nst":25,"dmin":0.0644,"rms":0.05,"gap":79,"magType":"md","type":"earthquake","title":"M 1.7 - 8 km ESE of Cloverdale, CA"},"geometry":{"type":"Point","coordinates":[-122.935997009277,38.7809982299805,6.55000019073486]},"id":"nc75441801"},
{"type":"Feature","properties":{"mag":4.2,"place":"39 km W of Plan de Ayala, Mexico","time":1790741219706,"updated":1790741995040,"tz":null,"url":"https://earthquake.usgs.gov/earthquakes/eventpage/us6000tyhe","detail":"https://earthquake.usgs.gov/earthquakes/feed/v1.0/detail/us6000tyhe.geojson","felt":null,"cdi":null,"mmi":null,"alert":null,"status":"reviewed","tsunami":0,"sig":271,"net":"us","code":"6000tyhe","ids":",us6000tyhe,","sources":",us,","types":",origin,phase-data,","nst":21,"dmin":2.03,"rms":1.44,"gap":140,"magType":"mb","type":"earthquake","title":"M 4.2 - 39 km W of Plan de Ayala, Mexico"},"geometry":{"type":"Point","coordinates":[-93.8603,17.4713,177.736]},"id":"us6000tyhe"},
{"type":"Feature","properties":{"mag":2.07,"place":"26 km WSW of Westley, CA","time":1790741046440,"updated":1790743339967,"tz":null,"url":"https://earthquake.usgs.gov/earthquakes/eventpage/nc75441791","detail":"https://earthquake.usgs.gov/earthquakes/feed/v1.0/detail/nc75441791.geojson","felt":null,"cdi":null,"mmi":null,"alert":null,"status":"automatic","tsunami":0,"sig":66,"net":"nc","code":"75441791","ids":",nc75441791,","sources":",nc,","types":",nearby-cities,origin,phase-data,scitech-link,","nst":15,"dmin":0.0436,"rms":0.07,"gap":80,"magType":"md","type":"earthquake","title":"M 2.1 - 26 km WSW of Westley, CA"},"geometry":{"type":"Point","coordinates":[-121.454666137695,37.4258346557617,3.65000009536743]},"id":"nc75441791"},
{"type":"Feature","properties":{"mag":0.7,"place":"86 km NNW of Karluk, Alaska","time":1790740750350,"updated":1790740789291,"tz":null,"url":"https://earthquake.usgs.gov/earthquakes/eventpage/aka2026tirxyv","detail":"https://earthquake.usgs.gov/earthquakes/feed/v1.0/detail/aka2026tirxyv.geojson","felt":null,"cdi":null,"mmi":null,"alert":null,"status":"automatic","tsunami":0,"sig":8,"net":"ak","code":"a2026tirxyv","ids":",aka2026tirxyv,","sources":",ak,","types":",origin,phase-data,","nst":10,"dmin":0,"rms":0.3,"gap":133,"magType":"ml","type":"earthquake","title":"M 0.7 - 86 km NNW of Karluk, Alaska"},"geometry":{"type":"Point","coordinates":[-154.981,58.291,5]},"id":"aka2026tirxyv"}],"bbox":[-154.981,17.4713,3.6500000953674,-93.8603,58.291,177.736]}