{"type":"FeatureCollection","metadata":{"generated":1790658967000,"url":"https://earthquake.usgs.gov/earthquakes/feed/v1.0/summary/all_hour.geojson","title":"USGS All Earthquakes, Past Hour","status":200,"api":"2.7.0","count":3},"features":[{"type":"Feature","properties":{"mag":1.3,"place":"34 km E of Skwentna, Alaska","time":1790657376825,"updated":1790657438630,"tz":null,"url":"https://earthquake.usgs.gov/earthquakes/eventpage/aka2026tgxpdh","detail":"https://earthquake.usgs.gov/earthquakes/feed/v1.0/detail/aka2026tgxpdh.geojson","felt":null,"cdi":null,"mmi":null,"alert":null,"status":"automatic","tsunami":0,"sig":26,"net":"ak","code":"a2026tgxpdh","ids":",aka2026tgxpdh,","sources":",ak,","types":",origin,phase-data,","nst":10,"dmin":0.5,"rms":0.7,"gap":123,"magType":"ml","type":"earthquake","title":"M 1.3 - 34 km E of Skwentna, Alaska"},"geometry":{"type":"Point","coordinates":[-150.745,62.013,0.7]},"id":"aka2026tgxpdh"},
{"type":"Feature","properties":{"mag":1.06,"place":"2 km NNW of The Geysers, CA","time":1790656401320,"updated":1790656497001,"tz":null,"url":"https://earthquake.usgs.gov/earthquakes/eventpage/nc75444157","detail":"https://earthquake.usgs.gov/earthquakes/feed/v1.0/detail/nc75444157.geojson","felt":null,"cdi":null,"mmi":null,"alert":null,"status":"automatic","tsunami":0,"sig":17,"net":"nc","code":"75444157","ids":",nc75444157,","sources":",nc,","types":",nearby-cities,origin,phase-data,","nst":16,"dmin":0.01139,"rms":0.02,"gap":76,"magType":"md","type":"earthquake","title":"M 1.1 - 2 km NNW of The Geysers, CA"},"geometry":{"type":"Point","coordinates":[-122.768165588379,38.791332244873,4.03999996185303]},"id":"nc75444157"},
{"type":"Feature","properties":{"mag":4.8,"place":"South Sandwich Islands region","time":1790655387199,"updated":1790656431040,"tz":null,"url":"https://earthquake.usgs.gov/earthquakes/eventpage/us6000tyab","detail":"https://earthquake.usgs.gov/earthquakes/feed/v1.0/detail/us6000tyab.geojson","felt":null,"cdi":null,"mmi":null,"alert":null,"status":"reviewed","tsunami":0,"sig":354,"net":"us","code":"6000tyab","ids":",us6000tyab,","sources":",us,","types":",origin,phase-data,","nst":27,"dmin":4.9,"rms":0.41,"gap":105,"magType":"mb","type":"earthquake","title":"M 4.8 - South Sandwich Islands region"},"geometry":{"type":"Point","coordinates":[-28.2098,-55.3157,35.08]},"id":"us6000tyab"}],"bbox":[-150.745,-55.3157,0.7,-28.2098,62.013,35.08]}