{"type":"FeatureCollection","metadata":{"generated":1790742028000,"url":"https://earthquake.usgs.gov/earthquakes/feed/v1.0/summary/significant_day.geojson","title":"USGS Significant Earthquakes, Past Day","status":200,"api":"2.7.0","count":1},"features":[{"type":"Feature","properties":{"mag":4.15,"place":"6 km WNW of Wauna, Washington","time":1790715956370,"updated":1790741896532,"tz":null,"url":"https://earthquake.usgs.gov/earthquakes/eventpage/uw714111952","detail":"https://earthquake.usgs.gov/earthquakes/feed/v1.0/detail/uw714111952.geojson","felt":8555,"cdi":3.8,"mmi":3.452,"alert":"green","status":"reviewed","tsunami":0,"sig":645,"net":"uw","code":"714111952","ids":",ew1790715960,uw714111952,us6000tyf3,","sources":",ew,uw,us,","types":",dyfi,event-sequence,losspager,moment-tensor,oaf,origin,phase-data,shake-alert,shakemap,","nst":180,"dmin":0.04201,"rms":0.21,"gap":22,"magType":"ml","type":"earthquake","title":"M 4.2 - 6 km WNW of Wauna, Washington"},"geometry":{"type":"Point","coordinates":[-122.722,47.4003333333333,27.92]},"id":"uw714111952"}]}